NORAD_CAT_ID,OBJECT_NAME,OBJECT_TYPE,EPOCH,MEAN_MOTION,ECCENTRICITY,INCLINATION,RA_OF_ASC_NODE,ARG_OF_PERICENTER,MEAN_ANOMALY,BSTAR,MEAN_MOTION_DOT,MEAN_MOTION_DDOT,TLE_LINE0,TLE_LINE1,TLE_LINE2,SEMIMAJOR_AXIS,PERIOD,APOGEE,PERIGEE,DECAYED
53178.0,STARLINK-4280,PAYLOAD,2022-10-28 06:00:00,15.08845905,0.0002604,53.2143,278.7959,30.1432,271.3358,0.00010193,1.334e-05,0.0,0 STARLINK-4280,1 53178U 22083AY  22301.25001157  .00001334  00000-0  10193-3 0  9996,2 53178  53.2143 278.7959 0002604  30.1432 271.3358 15.08845905 16524,6917.861999999999,95.437,541.529,537.9259999999998,0.0
53178.0,STARLINK-4280,PAYLOAD,2022-10-28 14:00:01,15.0886505,0.0002536,53.2141,277.2987,28.3711,284.7735,-0.0033953,-0.0005396,0.0,0 STARLINK-4280,1 53178U 22083AY  22301.58335648 -.00053960  00000-0 -33953-2 0  9999,2 53178  53.2141 277.2987 0002536  28.3711 284.7735 15.08865050  1300,6917.804,95.436,541.423,537.914,0.0
53178.0,STARLINK-4280,PAYLOAD,2022-10-28 22:00:01,15.08842676,0.0002368,53.2143,275.8012,31.2175,293.5269,-0.00010765,-2.001e-05,0.0,0 STARLINK-4280,1 53178U 22083AY  22301.91668981 -.00002001  00000-0 -10765-3 0  9992,2 53178  53.2143 275.8012 0002368  31.2175 293.5269 15.08842676  1304,6917.871999999999,95.437,541.375,538.099,0.0
53178.0,STARLINK-4280,PAYLOAD,2022-10-29 08:00:01,15.08809482,0.0002597,53.2144,273.9328,27.1499,42.032,0.0022855,0.00036244,0.0,0 STARLINK-4280,1 53178U 22083AY  22302.33334491  .00036244  00000-0  22855-2 0  9991,2 53178  53.2144 273.9328 0002597  27.1499  42.0320 15.08809482 16692,6917.974,95.439,541.635,538.0419999999998,0.0
53178.0,STARLINK-4280,PAYLOAD,2022-10-29 12:00:00,15.08850989,0.000256,53.2141,273.184,26.2554,228.7038,-0.0030458,-0.00048454,0.0,0 STARLINK-4280,1 53178U 22083AY  22302.50001157 -.00048454  00000-0 -30458-2 0  9996,2 53178  53.2141 273.1840 0002560  26.2554 228.7038 15.08850989  1301,6917.847,95.437,541.4830000000002,537.941,0.0
53178.0,STARLINK-4280,PAYLOAD,2022-10-29 22:00:01,15.08834516,0.0002349,53.2145,271.312,29.6404,329.9045,0.0028248,0.0004495,0.0,0 STARLINK-4280,1 53178U 22083AY  22302.91668981  .00044950  00000-0  28248-2 0  9994,2 53178  53.2145 271.3120 0002349  29.6404 329.9045 15.08834516  1302,6917.897,95.438,541.387,538.137,0.0
53178.0,STARLINK-4280,PAYLOAD,2022-10-30 14:00:01,15.08842531,0.0002418,53.2145,268.32,23.1037,359.5841,-0.0031504,-0.00050085,0.0,0 STARLINK-4280,1 53178U 22083AY  22303.58334491 -.00050085  00000-0 -31504-2 0  9991,2 53178  53.2145 268.3200 0002418  23.1037 359.5841 15.08842531  1304,6917.873000000001,95.437,541.41,538.065,0.0
53178.0,STARLINK-4280,PAYLOAD,2022-10-30 22:00:01,15.08805122,0.0002275999999999,53.2147,266.8229,25.3366,8.9933,0.0018612,0.00029429,0.0,0 STARLINK-4280,1 53178U 22083AY  22303.91668981  .00029429  00000-0  18612-2 0  9993,2 53178  53.2147 266.8229 0002276  25.3366   8.9933 15.08805122  1303,6917.986999999999,95.44,541.427,538.2769999999998,0.0
53178.0,STARLINK-4280,PAYLOAD,2022-10-31 14:00:01,15.08831673,0.0002463,53.2147,263.8308,26.3428,31.0666,-0.0016328,-0.00026176,0.0,0 STARLINK-4280,1 53178U 22083AY  22304.58334491 -.00026176  00000-0 -16328-2 0  9993,2 53178  53.2147 263.8308 0002463  26.3428  31.0666 15.08831673  1306,6917.906,95.438,541.475,538.067,0.0
53178.0,STARLINK-4280,PAYLOAD,2022-10-31 22:00:01,15.08829499,0.0002374,53.2148,262.3339,29.8899,39.153,0.0016198,0.00025578,0.0,0 STARLINK-4280,1 53178U 22083AY  22304.91668981  .00025578  00000-0  16198-2 0  9992,2 53178  53.2148 262.3339 0002374  29.8899  39.1530 15.08829499  1308,6917.9119999999975,95.438,541.42,538.135,0.0
53178.0,STARLINK-4280,PAYLOAD,2022-11-01 14:00:01,15.08848752,0.0002434,53.2146,259.3416,27.7396,64.4291,-0.00084999,-0.00013794,0.0,0 STARLINK-4280,1 53178U 22083AY  22305.58334491 -.00013794  00000-0 -84999-3 0  9996,2 53178  53.2146 259.3416 0002434  27.7396  64.4291 15.08848752 17185,6917.854,95.437,541.4019999999998,538.035,0.0
53178.0,STARLINK-4280,PAYLOAD,2022-11-01 22:00:00,15.08851214,0.0002369,53.2147,257.8448,31.6465,72.1216,-0.00077317,-0.00012577,0.0,0 STARLINK-4280,1 53178U 22083AY  22305.91667824 -.00012577  00000-0 -77317-3 0  9996,2 53178  53.2147 257.8448 0002369  31.6465  72.1216 15.08851214  1309,6917.846,95.437,541.35,538.072,0.0
53178.0,STARLINK-4280,PAYLOAD,2022-11-02 14:00:01,15.08808523,0.0002333,53.215,254.852,28.1092,98.8468,-1.7232e-05,-5.62e-06,0.0,0 STARLINK-4280,1 53178U 22083AY  22306.58334491 -.00000562  00000-0 -17232-4 0  9993,2 53178  53.2150 254.8520 0002333  28.1092  98.8468 15.08808523  1308,6917.977,95.44,541.456,538.2280000000002,0.0
53178.0,STARLINK-4280,PAYLOAD,2022-11-02 18:00:02,15.08784796,0.0002244,53.2154,254.1028,28.7646,284.0395,0.0042395,0.00067731,0.0,0 STARLINK-4280,1 53178U 22083AY  22306.75002315  .00067731  00000-0  42395-2 0  9994,2 53178  53.2154 254.1028 0002244  28.7646 284.0395 15.08784796 17355,6918.049,95.441,541.467,538.362,0.0
53178.0,STARLINK-4280,PAYLOAD,2022-11-02 21:23:21,15.08817173,0.0002477,53.2162,253.4697,30.1697,329.9437,-7.3439e-05,-1.456e-05,0.0,0 STARLINK-4280,1 53178U 22083AY  22306.89122468 -.00001456  00000-0 -73439-4 0  9990,2 53178  53.2162 253.4697 0002477  30.1697 329.9437 15.08817173 16743,6917.95,95.439,541.529,538.102,0.0
53178.0,STARLINK-4280,PAYLOAD,2022-11-03 03:44:54,15.08826847,0.0002363,53.2164,252.281,36.6118,323.5036,-5.6505e-05,-1.187e-05,0.0,0 STARLINK-4280,1 53178U 22083AY  22307.15618152 -.00001187  00000-0 -56505-4 0  9996,2 53178  53.2164 252.2810 0002363  36.6118 323.5036 15.08826847 17410,6917.920999999999,95.438,541.42,538.151,0.0
53178.0,STARLINK-4280,PAYLOAD,2022-11-03 05:20:16,15.08833097,0.0002481,53.2161,251.9828,31.5873,328.5268,-4.3777e-06,-3.58e-06,0.0,0 STARLINK-4280,1 53178U 22083AY  22307.22241649 -.00000358  00000-0 -43777-5 0  9994,2 53178  53.2161 251.9828 0002481  31.5873 328.5268 15.08833097 17423,6917.901,95.438,541.4830000000002,538.05,0.0
53178.0,STARLINK-4280,PAYLOAD,2022-11-04 02:00:15,15.0884842,0.0002675,53.2163,248.1172,31.6933,328.422,0.00018362,2.636e-05,0.0,0 STARLINK-4280,1 53178U 22083AY  22308.08351758  .00002636  00000-0  18362-3 0  9991,2 53178  53.2163 248.1172 0002675  31.6933 328.4220 15.08848420 17555,6917.855,95.437,541.57,537.869,0.0
53178.0,STARLINK-4280,PAYLOAD,2022-11-04 05:11:01,15.08855918,0.0002325,53.2168,247.5237,38.1515,321.9641,0.00022852,3.352e-05,0.0,0 STARLINK-4280,1 53178U 22083AY  22308.21599046  .00003352  00000-0  22852-3 0  9995,2 53178  53.2168 247.5237 0002325  38.1515 321.9641 15.08855918 17572,6917.831999999999,95.437,541.305,538.0880000000002,0.0
53178.0,STARLINK-4280,PAYLOAD,2022-11-04 19:29:30,15.08843626,0.0002602,53.217,244.8479,41.1535,318.9653,0.00020655,3.001e-05,0.0,0 STARLINK-4280,1 53178U 22083AY  22308.81215670  .00003001  00000-0  20655-3 0  9999,2 53178  53.2170 244.8479 0002602  41.1535 318.9653 15.08843626 17669,6917.869000000002,95.437,541.534,537.934,0.0
53178.0,STARLINK-4280,PAYLOAD,2022-11-05 01:51:03,15.08839641,0.0002413,53.2155,243.656,27.7283,332.3837,6.7007e-05,7.78e-06,0.0,0 STARLINK-4280,1 53178U 22083AY  22309.07712492  .00000778  00000-0  67007-4 0  9993,2 53178  53.2155 243.6560 0002413  27.7283 332.3837 15.08839641 17701,6917.880999999999,95.438,541.4159999999998,538.077,0.0
53178.0,STARLINK-4280,PAYLOAD,2022-11-05 03:26:26,15.08838209,0.0002345,53.2157,243.359,30.1652,329.9475,7.816e-05,9.56e-06,0.0,0 STARLINK-4280,1 53178U 22083AY  22309.14336479  .00000956  00000-0  78160-4 0  9998,2 53178  53.2157 243.3590 0002345  30.1652 329.9475 15.08838209 17085,6917.886,95.438,541.373,538.129,0.0
53178.0,STARLINK-4280,PAYLOAD,2022-11-06 01:41:52,15.08834322,0.0002086,53.2153,239.1952,40.7177,319.3971,-0.00023234,-3.984e-05,0.0,0 STARLINK-4280,1 53178U 22083AY  22310.07074129 -.00003984  00000-0 -23234-3 0  9990,2 53178  53.2153 239.1952 0002086  40.7177 319.3971 15.08834322 17858,6917.898,95.438,541.206,538.32,0.0
53178.0,STARLINK-4280,PAYLOAD,2022-11-06 04:52:37,15.08848941,0.0002289,53.216,238.6015,29.9416,330.1706,-9.177e-05,-1.749e-05,0.0,0 STARLINK-4280,1 53178U 22083AY  22310.20320961 -.00001749  00000-0 -91770-4 0  9991,2 53178  53.2160 238.6015 0002289  29.9416 330.1706 15.08848941 17871,6917.853,95.437,541.302,538.135,0.0
53178.0,STARLINK-4280,PAYLOAD,2022-11-07 01:32:38,15.08831827,0.000242,53.2167,234.7363,33.6546,326.4599,7.252699999999999e-05,8.66e-06,0.0,0 STARLINK-4280,1 53178U 22083AY  22311.06433588  .00000866  00000-0  72527-4 0  9992,2 53178  53.2167 234.7363 0002420  33.6546 326.4599 15.08831827 18003,6917.905,95.438,541.445,538.096,0.0
53178.0,STARLINK-4280,PAYLOAD,2022-11-08 04:34:12,15.08838243,0.000246,53.2159,229.6803,28.7085,331.4042,1.6177e-05,-3.1e-07,0.0,0 STARLINK-4280,1 53178U 22083AY  22312.19042084 -.00000031  00000-0  16177-4 0  9998,2 53178  53.2159 229.6803 0002460  28.7085 331.4042 15.08838243 18179,6917.886,95.438,541.453,538.049,0.0
53178.0,STARLINK-4280,PAYLOAD,2022-11-08 23:38:47,15.0885686,0.0002696,53.2162,226.1119,28.2255,331.8883,0.00023499,3.455e-05,0.0,0 STARLINK-4280,1 53178U 22083AY  22312.98527567  .00003455  00000-0  23499-3 0  9995,2 53178  53.2162 226.1119 0002696  28.2255 331.8883 15.08856860 18295,6917.829000000002,95.436,541.559,537.8290000000002,0.0
53178.0,STARLINK-4280,PAYLOAD,2022-11-09 10:46:30,15.0884835,0.0003244,53.217,224.0311,35.97400000000001,324.147,0.00010451,1.375e-05,0.0,0 STARLINK-4280,1 53178U 22083AY  22313.44896418  .00001375  00000-0  10451-3 0  9994,2 53178  53.2170 224.0311 0003244  35.9740 324.1470 15.08848350 18369,6917.855,95.437,541.964,537.476,0.0
53178.0,STARLINK-4280,PAYLOAD,2022-11-10 01:05:01,15.08810672,0.0002357,53.2156,221.354,26.1636,333.9475,-0.0002355,-4.031e-05,0.0,0 STARLINK-4280,1 53178U 22083AY  22314.04515981 -.00004031  00000-0 -23550-3 0  9992,2 53178  53.2156 221.3540 0002357  26.1636 333.9475 15.08810672 18456,6917.97,95.439,541.466,538.2040000000002,0.0
